CCSDS_OMM_VERS = 2.0
CREATION_DATE  = 
ORIGINATOR     = 

OBJECT_NAME    = STARLINK-36325
OBJECT_ID      = 2026-034M
CENTER_NAME    = EARTH
REF_FRAME      = TEME
TIME_SYSTEM    = UTC
MEAN_ELEMENT_THEORY = SGP/SGP4

EPOCH          = 2026-03-12T16:40:21.472608
MEAN_MOTION    = 15.80961740
ECCENTRICITY   = .0001323
INCLINATION    = 53.1581
RA_OF_ASC_NODE = 196.2002
ARG_OF_PERICENTER = 75.2779
MEAN_ANOMALY   = 284.8390

EPHEMERIS_TYPE = 0
CLASSIFICATION_TYPE = U
NORAD_CAT_ID   = 67861
ELEMENT_SET_NO = 999
REV_AT_EPOCH   = 441
BSTAR          = .10933E-2
MEAN_MOTION_DOT = .221613E-2
MEAN_MOTION_DDOT = 0

CCSDS_OMM_VERS = 2.0
CREATION_DATE  = 
ORIGINATOR     = 

OBJECT_NAME    = STARLINK-36332
OBJECT_ID      = 2026-034N
CENTER_NAME    = EARTH
REF_FRAME      = TEME
TIME_SYSTEM    = UTC
MEAN_ELEMENT_THEORY = SGP/SGP4

EPOCH          = 2026-03-12T15:08:14.392896
MEAN_MOTION    = 15.80960110
ECCENTRICITY   = .0001065
INCLINATION    = 53.1582
RA_OF_ASC_NODE = 196.5124
ARG_OF_PERICENTER = 87.3096
MEAN_ANOMALY   = 272.8049

EPHEMERIS_TYPE = 0
CLASSIFICATION_TYPE = U
NORAD_CAT_ID   = 67862
ELEMENT_SET_NO = 999
REV_AT_EPOCH   = 440
BSTAR          = .86425E-3
MEAN_MOTION_DOT = .174054E-2
MEAN_MOTION_DDOT = 0

CCSDS_OMM_VERS = 2.0
CREATION_DATE  = 
ORIGINATOR     = 

OBJECT_NAME    = STARLINK-36835
OBJECT_ID      = 2026-034P
CENTER_NAME    = EARTH
REF_FRAME      = TEME
TIME_SYSTEM    = UTC
MEAN_ELEMENT_THEORY = SGP/SGP4

EPOCH          = 2026-03-12T15:07:09.379488
MEAN_MOTION    = 15.80955351
ECCENTRICITY   = .0001177
INCLINATION    = 53.1585
RA_OF_ASC_NODE = 196.5063
ARG_OF_PERICENTER = 61.5060
MEAN_ANOMALY   = 298.6081

EPHEMERIS_TYPE = 0
CLASSIFICATION_TYPE = U
NORAD_CAT_ID   = 67863
ELEMENT_SET_NO = 999
REV_AT_EPOCH   = 440
BSTAR          = .10515E-2
MEAN_MOTION_DOT = .212834E-2
MEAN_MOTION_DDOT = 0

CCSDS_OMM_VERS = 2.0
CREATION_DATE  = 
ORIGINATOR     = 

OBJECT_NAME    = STARLINK-36831
OBJECT_ID      = 2026-034Q
CENTER_NAME    = EARTH
REF_FRAME      = TEME
TIME_SYSTEM    = UTC
MEAN_ELEMENT_THEORY = SGP/SGP4

EPOCH          = 2026-03-12T15:06:04.656384
MEAN_MOTION    = 15.81019813
ECCENTRICITY   = .0001066
INCLINATION    = 53.1581
RA_OF_ASC_NODE = 196.5018
ARG_OF_PERICENTER = 65.6888
MEAN_ANOMALY   = 294.4246

EPHEMERIS_TYPE = 0
CLASSIFICATION_TYPE = U
NORAD_CAT_ID   = 67864
ELEMENT_SET_NO = 999
REV_AT_EPOCH   = 440
BSTAR          = .162E-2
MEAN_MOTION_DOT = .333964E-2
MEAN_MOTION_DDOT = 0

CCSDS_OMM_VERS = 2.0
CREATION_DATE  = 
ORIGINATOR     = 

OBJECT_NAME    = STARLINK-36738
OBJECT_ID      = 2026-034R
CENTER_NAME    = EARTH
REF_FRAME      = TEME
TIME_SYSTEM    = UTC
MEAN_ELEMENT_THEORY = SGP/SGP4

EPOCH          = 2026-03-12T15:04:59.884032
MEAN_MOTION    = 15.81021163
ECCENTRICITY   = .0001028
INCLINATION    = 53.1580
RA_OF_ASC_NODE = 196.4962
ARG_OF_PERICENTER = 58.5757
MEAN_ANOMALY   = 301.5366

EPHEMERIS_TYPE = 0
CLASSIFICATION_TYPE = U
NORAD_CAT_ID   = 67865
ELEMENT_SET_NO = 999
REV_AT_EPOCH   = 440
BSTAR          = .16691E-2
MEAN_MOTION_DOT = .344568E-2
MEAN_MOTION_DDOT = 0

CCSDS_OMM_VERS = 2.0
CREATION_DATE  = 
ORIGINATOR     = 

OBJECT_NAME    = STARLINK-36780
OBJECT_ID      = 2026-034S
CENTER_NAME    = EARTH
REF_FRAME      = TEME
TIME_SYSTEM    = UTC
MEAN_ELEMENT_THEORY = SGP/SGP4

EPOCH          = 2026-03-12T15:03:54.886176
MEAN_MOTION    = 15.81037617
ECCENTRICITY   = .0000699
INCLINATION    = 53.1585
RA_OF_ASC_NODE = 196.4892
ARG_OF_PERICENTER = 78.2692
MEAN_ANOMALY   = 281.8409

EPHEMERIS_TYPE = 0
CLASSIFICATION_TYPE = U
NORAD_CAT_ID   = 67866
ELEMENT_SET_NO = 999
REV_AT_EPOCH   = 440
BSTAR          = .18007E-2
MEAN_MOTION_DOT = .373334E-2
MEAN_MOTION_DDOT = 0

CCSDS_OMM_VERS = 2.0
CREATION_DATE  = 
ORIGINATOR     = 

OBJECT_NAME    = STARLINK-36761
OBJECT_ID      = 2026-034T
CENTER_NAME    = EARTH
REF_FRAME      = TEME
TIME_SYSTEM    = UTC
MEAN_ELEMENT_THEORY = SGP/SGP4

EPOCH          = 2026-03-12T15:02:50.327232
MEAN_MOTION    = 15.81005795
ECCENTRICITY   = .000111
INCLINATION    = 53.1585
RA_OF_ASC_NODE = 196.4837
ARG_OF_PERICENTER = 61.5618
MEAN_ANOMALY   = 298.5517

EPHEMERIS_TYPE = 0
CLASSIFICATION_TYPE = U
NORAD_CAT_ID   = 67867
ELEMENT_SET_NO = 999
REV_AT_EPOCH   = 440
BSTAR          = .14961E-2
MEAN_MOTION_DOT = .307198E-2
MEAN_MOTION_DDOT = 0

CCSDS_OMM_VERS = 2.0
CREATION_DATE  = 
ORIGINATOR     = 

OBJECT_NAME    = STARLINK-36762
OBJECT_ID      = 2026-034U
CENTER_NAME    = EARTH
REF_FRAME      = TEME
TIME_SYSTEM    = UTC
MEAN_ELEMENT_THEORY = SGP/SGP4

EPOCH          = 2026-03-12T15:01:45.367392
MEAN_MOTION    = 15.80970797
ECCENTRICITY   = .000101
INCLINATION    = 53.1585
RA_OF_ASC_NODE = 196.4799
ARG_OF_PERICENTER = 90.6990
MEAN_ANOMALY   = 269.4148

EPHEMERIS_TYPE = 0
CLASSIFICATION_TYPE = U
NORAD_CAT_ID   = 67868
ELEMENT_SET_NO = 999
REV_AT_EPOCH   = 440
BSTAR          = .11669E-2
MEAN_MOTION_DOT = .237101E-2
MEAN_MOTION_DDOT = 0

CCSDS_OMM_VERS = 2.0
CREATION_DATE  = 
ORIGINATOR     = 

OBJECT_NAME    = STARLINK-36779
OBJECT_ID      = 2026-034V
CENTER_NAME    = EARTH
REF_FRAME      = TEME
TIME_SYSTEM    = UTC
MEAN_ELEMENT_THEORY = SGP/SGP4

EPOCH          = 2026-03-12T15:00:40.539744
MEAN_MOTION    = 15.80972004
ECCENTRICITY   = .0000982
INCLINATION    = 53.1590
RA_OF_ASC_NODE = 196.4743
ARG_OF_PERICENTER = 78.6833
MEAN_ANOMALY   = 281.4300

EPHEMERIS_TYPE = 0
CLASSIFICATION_TYPE = U
NORAD_CAT_ID   = 67869
ELEMENT_SET_NO = 999
REV_AT_EPOCH   = 440
BSTAR          = .97432E-3
MEAN_MOTION_DOT = .196946E-2
MEAN_MOTION_DDOT = 0

CCSDS_OMM_VERS = 2.0
CREATION_DATE  = 
ORIGINATOR     = 

OBJECT_NAME    = STARLINK-36770
OBJECT_ID      = 2026-034W
CENTER_NAME    = EARTH
REF_FRAME      = TEME
TIME_SYSTEM    = UTC
MEAN_ELEMENT_THEORY = SGP/SGP4

EPOCH          = 2026-03-12T14:58:31.043424
MEAN_MOTION    = 15.80988696
ECCENTRICITY   = .0001162
INCLINATION    = 53.1584
RA_OF_ASC_NODE = 196.4638
ARG_OF_PERICENTER = 61.1768
MEAN_ANOMALY   = 298.9371

EPHEMERIS_TYPE = 0
CLASSIFICATION_TYPE = U
NORAD_CAT_ID   = 67870
ELEMENT_SET_NO = 999
REV_AT_EPOCH   = 440
BSTAR          = .13973E-2
MEAN_MOTION_DOT = .28593E-2
MEAN_MOTION_DDOT = 0

CCSDS_OMM_VERS = 2.0
CREATION_DATE  = 
ORIGINATOR     = 

OBJECT_NAME    = STARLINK-36769
OBJECT_ID      = 2026-034X
CENTER_NAME    = EARTH
REF_FRAME      = TEME
TIME_SYSTEM    = UTC
MEAN_ELEMENT_THEORY = SGP/SGP4

EPOCH          = 2026-03-12T14:59:36.532032
MEAN_MOTION    = 15.80914036
ECCENTRICITY   = .0001825
INCLINATION    = 53.1587
RA_OF_ASC_NODE = 196.4701
ARG_OF_PERICENTER = 67.6151
MEAN_ANOMALY   = 292.5065

EPHEMERIS_TYPE = 0
CLASSIFICATION_TYPE = U
NORAD_CAT_ID   = 67871
ELEMENT_SET_NO = 999
REV_AT_EPOCH   = 440
BSTAR          = .10654E-2
MEAN_MOTION_DOT = .215315E-2
MEAN_MOTION_DDOT = 0

CCSDS_OMM_VERS = 2.0
CREATION_DATE  = 
ORIGINATOR     = 

OBJECT_NAME    = STARLINK-36786
OBJECT_ID      = 2026-034Y
CENTER_NAME    = EARTH
REF_FRAME      = TEME
TIME_SYSTEM    = UTC
MEAN_ELEMENT_THEORY = SGP/SGP4

EPOCH          = 2026-03-12T14:57:26.259840
MEAN_MOTION    = 15.80936637
ECCENTRICITY   = .0001056
INCLINATION    = 53.1585
RA_OF_ASC_NODE = 196.4602
ARG_OF_PERICENTER = 64.5838
MEAN_ANOMALY   = 295.5294

EPHEMERIS_TYPE = 0
CLASSIFICATION_TYPE = U
NORAD_CAT_ID   = 67872
ELEMENT_SET_NO = 999
REV_AT_EPOCH   = 440
BSTAR          = .83089E-3
MEAN_MOTION_DOT = .166989E-2
MEAN_MOTION_DDOT = 0

