STARLINK-36325          
1 67861U 26034M   26071.69469297  .00221613  00000+0  10933-2 0  9993
2 67861  53.1581 196.2002 0001323  75.2779 284.8390 15.80961740  4413
STARLINK-36332          
1 67862U 26034N   26071.63072214  .00174054  00000+0  86425-3 0  9993
2 67862  53.1582 196.5124 0001065  87.3096 272.8049 15.80960110  4409
STARLINK-36835          
1 67863U 26034P   26071.62996967  .00212834  00000+0  10515-2 0  9998
2 67863  53.1585 196.5063 0001177  61.5060 298.6081 15.80955351  4407
STARLINK-36831          
1 67864U 26034Q   26071.62922056  .00333964  00000+0  16200-2 0  9992
2 67864  53.1581 196.5018 0001066  65.6888 294.4246 15.81019813  4406
STARLINK-36738          
1 67865U 26034R   26071.62847088  .00344568  00000+0  16691-2 0  9990
2 67865  53.1580 196.4962 0001028  58.5757 301.5366 15.81021163  4401
STARLINK-36780          
1 67866U 26034S   26071.62771859  .00373334  00000+0  18007-2 0  9999
2 67866  53.1585 196.4892 0000699  78.2692 281.8409 15.81037617  4408
STARLINK-36761          
1 67867U 26034T   26071.62697138  .00307198  00000+0  14961-2 0  9997
2 67867  53.1585 196.4837 0001110  61.5618 298.5517 15.81005795  4407
STARLINK-36762          
1 67868U 26034U   26071.62621953  .00237101  00000+0  11669-2 0  9998
2 67868  53.1585 196.4799 0001010  90.6990 269.4148 15.80970797  4409
STARLINK-36779          
1 67869U 26034V   26071.62546921  .00196946  00000+0  97432-3 0  9994
2 67869  53.1590 196.4743 0000982  78.6833 281.4300 15.80972004  4401
STARLINK-36770          
1 67870U 26034W   26071.62397041  .00285930  00000+0  13973-2 0  9992
2 67870  53.1584 196.4638 0001162  61.1768 298.9371 15.80988696  4409
STARLINK-36769          
1 67871U 26034X   26071.62472838  .00215315  00000+0  10654-2 0  9994
2 67871  53.1587 196.4701 0001825  67.6151 292.5065 15.80914036  4404
STARLINK-36786          
1 67872U 26034Y   26071.62322060  .00166989  00000+0  83089-3 0  9991
2 67872  53.1585 196.4602 0001056  64.5838 295.5294 15.80936637  4405
